start=new Date('2022-11-03T00:00:00.000Z').valueOf();
sats=[{"EPOCH":"2022-11-02T18:17:14.228736","MEAN_ANOMALY":"331.1950","OBJECT_ID":"2021-104P","OBJECT_TYPE":"PAYLOAD","SEMIMAJOR_AXIS":"6917.923","APOAPSIS":"541.697","COUNTRY_CODE":"US","LAUNCH_DATE":"2021-11-13","TIME_SYSTEM":"UTC","TLE_LINE2":"2 49421  53.2175 319.0669 0002759  28.9195 331.1950 15.08825911 54007","ARG_OF_PERICENTER":"28.9195","CLASSIFICATION_TYPE":"U","INCLINATION":"53.2175","MEAN_MOTION_DDOT":"0.0000000000000","REF_FRAME":"TEME","CENTER_NAME":"EARTH","EPHEMERIS_TYPE":"0","MEAN_ELEMENT_THEORY":"SGP4","PERIAPSIS":"537.880","RCS_SIZE":"LARGE","OBJECT_NAME":"STARLINK-3112","NORAD_CAT_ID":"49421","ELEMENT_SET_NO":"999","REV_AT_EPOCH":"5400","MEAN_MOTION_DOT":"0.00000938","RA_OF_ASC_NODE":"319.0669","FILE":"3643025","ECCENTRICITY":"0.00027590","BSTAR":"0.00007705200000","TLE_LINE1":"1 49421U 21104P   22306.76197024  .00000938  00000-0  77052-4 0  9992","SITE":"AFETR","GP_ID":"216791410","PERIOD":"95.438","MEAN_MOTION":"15.08825911","DECAY_DATE":null},{"GP_ID":"216790659","SITE":"AFETR","BSTAR":"0.00018377000000","ECCENTRICITY":"0.00025300","TLE_LINE1":"1 49422U 21104Q   22306.77300334  .00002637  00000-0  18377-3 0  9996","DECAY_DATE":null,"PERIOD":"95.438","MEAN_MOTION":"15.08835745","MEAN_MOTION_DOT":"0.00002637","RA_OF_ASC_NODE":"319.0206","REV_AT_EPOCH":"5400","ELEMENT_SET_NO":"999","FILE":"3643025","REF_FRAME":"TEME","CENTER_NAME":"EARTH","CLASSIFICATION_TYPE":"U","MEAN_MOTION_DDOT":"0.0000000000000","INCLINATION":"53.2177","NORAD_CAT_ID":"49422","OBJECT_NAME":"STARLINK-3161","RCS_SIZE":"LARGE","PERIAPSIS":"538.008","EPHEMERIS_TYPE":"0","MEAN_ELEMENT_THEORY":"SGP4","SEMIMAJOR_AXIS":"6917.893","OBJECT_TYPE":"PAYLOAD","MEAN_ANOMALY":"325.2305","OBJECT_ID":"2021-104Q","EPOCH":"2022-11-02T18:33:07.488576","TLE_LINE2":"2 49422  53.2177 319.0206 0002530  34.8853 325.2305 15.08835745 54005","ARG_OF_PERICENTER":"34.8853","LAUNCH_DATE":"2021-11-13","TIME_SYSTEM":"UTC","APOAPSIS":"541.509","COUNTRY_CODE":"US"},{"GP_ID":"216754048","ECCENTRICITY":"0.00025570","BSTAR":"0.00018492000000","TLE_LINE1":"1 49423U 21104R   22306.42340861  .00002655  00000-0  18492-3 0  9996","SITE":"AFETR","DECAY_DATE":null,"PERIOD":"95.439","MEAN_MOTION":"15.08823796","RA_OF_ASC_NODE":"320.5899","MEAN_MOTION_DOT":"0.00002655","ELEMENT_SET_NO":"999","REV_AT_EPOCH":"5395","FILE":"3642416","REF_FRAME":"TEME","CENTER_NAME":"EARTH","CLASSIFICATION_TYPE":"U","INCLINATION":"53.2175","MEAN_MOTION_DDOT":"0.0000000000000","OBJECT_NAME":"STARLINK-3149","NORAD_CAT_ID":"49423","EPHEMERIS_TYPE":"0","MEAN_ELEMENT_THEORY":"SGP4","PERIAPSIS":"538.026","RCS_SIZE":"LARGE","OBJECT_TYPE":"PAYLOAD","SEMIMAJOR_AXIS":"6917.930","EPOCH":"2022-11-02T10:09:42.503904","MEAN_ANOMALY":"326.6229","OBJECT_ID":"2021-104R","TIME_SYSTEM":"UTC","LAUNCH_DATE":"2021-11-13","ARG_OF_PERICENTER":"33.4925","TLE_LINE2":"2 49423  53.2175 320.5899 0002557  33.4925 326.6229 15.08823796 53959","APOAPSIS":"541.564","COUNTRY_CODE":"US"},{"PERIOD":"95.438","MEAN_MOTION":"15.08834471","DECAY_DATE":null,"ECCENTRICITY":"0.00023800","BSTAR":"0.00002592500000","TLE_LINE1":"1 49424U 21104S   22306.76563657  .00000124  00000-0  25925-4 0  9993","SITE":"AFETR","GP_ID":"216791160","FILE":"3643025","ELEMENT_SET_NO":"999","REV_AT_EPOCH":"5400","RA_OF_ASC_NODE":"319.0475","MEAN_MOTION_DOT":"0.00000124","EPHEMERIS_TYPE":"0","MEAN_ELEMENT_THEORY":"SGP4","RCS_SIZE":"LARGE","PERIAPSIS":"538.116","OBJECT_NAME":"STARLINK-3135","NORAD_CAT_ID":"49424","CLASSIFICATION_TYPE":"U","MEAN_MOTION_DDOT":"0.0000000000000","INCLINATION":"53.2177","REF_FRAME":"TEME","CENTER_NAME":"EARTH","APOAPSIS":"541.409","COUNTRY_CODE":"US","LAUNCH_DATE":"2021-11-13","TIME_SYSTEM":"UTC","TLE_LINE2":"2 49424  53.2177 319.0475 0002380  34.8942 325.2205 15.08834471 54001","ARG_OF_PERICENTER":"34.8942","EPOCH":"2022-11-02T18:22:30.999648","MEAN_ANOMALY":"325.2205","OBJECT_ID":"2021-104S","OBJECT_TYPE":"PAYLOAD","SEMIMAJOR_AXIS":"6917.897"},{"COUNTRY_CODE":"US","APOAPSIS":"541.872","ARG_OF_PERICENTER":"24.0155","TLE_LINE2":"2 49425  53.2174 320.6018 0003064  24.0155 336.0980 15.08837679 53964","LAUNCH_DATE":"2021-11-13","TIME_SYSTEM":"UTC","OBJECT_ID":"2021-104T","MEAN_ANOMALY":"336.0980","EPOCH":"2022-11-02T10:04:23.426112","SEMIMAJOR_AXIS":"6917.887","OBJECT_TYPE":"PAYLOAD","RCS_SIZE":"LARGE","PERIAPSIS":"537.633","MEAN_ELEMENT_THEORY":"SGP4","EPHEMERIS_TYPE":"0","NORAD_CAT_ID":"49425","OBJECT_NAME":"STARLINK-3139","INCLINATION":"53.2174","MEAN_MOTION_DDOT":"0.0000000000000","CLASSIFICATION_TYPE":"U","CENTER_NAME":"EARTH","REF_FRAME":"TEME","FILE":"3642416","REV_AT_EPOCH":"5396","ELEMENT_SET_NO":"999","RA_OF_ASC_NODE":"320.6018","MEAN_MOTION_DOT":"0.00001831","MEAN_MOTION":"15.08837679","PERIOD":"95.438","DECAY_DATE":null,"SITE":"AFETR","TLE_LINE1":"1 49425U 21104T   22306.41971558  .00001831  00000-0  13312-3 0  9991","ECCENTRICITY":"0.00030640","BSTAR":"0.00013312000000","GP_ID":"216755050"},{"REF_FRAME":"TEME","CENTER_NAME":"EARTH","CLASSIFICATION_TYPE":"U","INCLINATION":"53.2156","MEAN_MOTION_DDOT":"0.0000000000000","NORAD_CAT_ID":"49426","OBJECT_NAME":"STARLINK-3114","PERIAPSIS":"538.136","RCS_SIZE":"LARGE","EPHEMERIS_TYPE":"0","MEAN_ELEMENT_THEORY":"SGP4","SEMIMAJOR_AXIS":"6917.910","OBJECT_TYPE":"PAYLOAD","MEAN_ANOMALY":"326.2474","OBJECT_ID":"2021-104U","EPOCH":"2022-11-02T18:11:54.799296","TLE_LINE2":"2 49426  53.2156 319.0875 0002369  33.8669 326.2474 15.08830350 54007","ARG_OF_PERICENTER":"33.8669","LAUNCH_DATE":"2021-11-13","TIME_SYSTEM":"UTC","APOAPSIS":"541.414","COUNTRY_CODE":"US","GP_ID":"216790160","SITE":"AFETR","BSTAR":"0.00010497000000","ECCENTRICITY":"0.00023690","TLE_LINE1":"1 49426U 21104U   22306.75827314  .00001382  00000-0  10497-3 0  9991","DECAY_DATE":null,"PERIOD":"95.438","MEAN_MOTION":"15.08830350","MEAN_MOTION_DOT":"0.00001382","RA_OF_ASC_NODE":"319.0875","REV_AT_EPOCH":"5400","ELEMENT_SET_NO":"999","FILE":"3643025"},{"MEAN_MOTION_DDOT":"0.0000000000000","INCLINATION":"53.2162","CLASSIFICATION_TYPE":"U","CENTER_NAME":"EARTH","REF_FRAME":"TEME","MEAN_ELEMENT_THEORY":"SGP4","EPHEMERIS_TYPE":"0","PERIAPSIS":"537.936","RCS_SIZE":"LARGE","OBJECT_NAME":"STARLINK-3131","NORAD_CAT_ID":"49427","EPOCH":"2022-11-02T17:56:00.931200","OBJECT_ID":"2021-104V","MEAN_ANOMALY":"334.8990","OBJECT_TYPE":"PAYLOAD","SEMIMAJOR_AXIS":"6917.891","COUNTRY_CODE":"US","APOAPSIS":"541.576","LAUNCH_DATE":"2021-11-13","TIME_SYSTEM":"UTC","TLE_LINE2":"2 49427  53.2162 319.1372 0002631  25.2130 334.8990 15.08836429 54010","ARG_OF_PERICENTER":"25.2130","TLE_LINE1":"1 49427U 21104V   22306.74723300  .00001567  00000-0  11655-3 0  9993","ECCENTRICITY":"0.00026310","BSTAR":"0.00011655000000","SITE":"AFETR","GP_ID":"216790408","MEAN_MOTION":"15.08836429","PERIOD":"95.438","DECAY_DATE":null,"ELEMENT_SET_NO":"999","REV_AT_EPOCH":"5401","RA_OF_ASC_NODE":"319.1372","MEAN_MOTION_DOT":"0.00001567","FILE":"3643025"},{"TLE_LINE2":"2 49428  53.2177 319.1776 0002558  30.5454 329.5687 15.08842449 54014","ARG_OF_PERICENTER":"30.5454","LAUNCH_DATE":"2021-11-13","TIME_SYSTEM":"UTC","APOAPSIS":"541.507","COUNTRY_CODE":"US","SEMIMAJOR_AXIS":"6917.873","OBJECT_TYPE":"PAYLOAD","MEAN_ANOMALY":"329.5687","OBJECT_ID":"2021-104W","EPOCH":"2022-11-02T17:41:29.123232","NORAD_CAT_ID":"49428","OBJECT_NAME":"STARLINK-3121","PERIAPSIS":"537.968","RCS_SIZE":"LARGE","EPHEMERIS_TYPE":"0","MEAN_ELEMENT_THEORY":"SGP4","REF_FRAME":"TEME","CENTER_NAME":"EARTH","CLASSIFICATION_TYPE":"U","INCLINATION":"53.2177","MEAN_MOTION_DDOT":"0.0000000000000","FILE":"3643025","MEAN_MOTION_DOT":"0.00002485","RA_OF_ASC_NODE":"319.1776","REV_AT_EPOCH":"5401","ELEMENT_SET_NO":"999","DECAY_DATE":null,"PERIOD":"95.437","MEAN_MOTION":"15.08842449","GP_ID":"216791660","SITE":"AFETR","ECCENTRICITY":"0.00025580","BSTAR":"0.00017417000000","TLE_LINE1":"1 49428U 21104W   22306.73714263  .00002485  00000-0  17417-3 0  9993"},{"FILE":"3642416","RA_OF_ASC_NODE":"320.3429","MEAN_MOTION_DOT":"0.00001447","ELEMENT_SET_NO":"999","REV_AT_EPOCH":"5397","DECAY_DATE":null,"MEAN_MOTION":"15.08832533","PERIOD":"95.438","GP_ID":"216754550","TLE_LINE1":"1 49430U 21104Y   22306.47859496  .00001447  00000-0  10901-3 0  9993","ECCENTRICITY":"0.00023110","BSTAR":"0.00010901000000","SITE":"AFETR","LAUNCH_DATE":"2021-11-13","TIME_SYSTEM":"UTC","TLE_LINE2":"2 49430  53.2175 320.3429 0002311  36.2604 323.8544 15.08832533 53977","ARG_OF_PERICENTER":"36.2604","COUNTRY_CODE":"US","APOAPSIS":"541.367","OBJECT_TYPE":"PAYLOAD","SEMIMAJOR_AXIS":"6917.903","EPOCH":"2022-11-02T11:29:10.604544","OBJECT_ID":"2021-104Y","MEAN_ANOMALY":"323.8544","OBJECT_NAME":"STARLINK-3138","NORAD_CAT_ID":"49430","MEAN_ELEMENT_THEORY":"SGP4","EPHEMERIS_TYPE":"0","PERIAPSIS":"538.169","RCS_SIZE":"LARGE","CENTER_NAME":"EARTH","REF_FRAME":"TEME","INCLINATION":"53.2175","MEAN_MOTION_DDOT":"0.0000000000000","CLASSIFICATION_TYPE":"U"},{"MEAN_MOTION":"15.08828202","PERIOD":"95.438","DECAY_DATE":null,"SITE":"AFETR","TLE_LINE1":"1 49431U 21104Z   22306.77027868  .00000649  00000-0  58923-4 0  9997","ECCENTRICITY":"0.00021460","BSTAR":"0.00005892300000","GP_ID":"216790660","FILE":"3643025","REV_AT_EPOCH":"5401","ELEMENT_SET_NO":"999","MEAN_MOTION_DOT":"0.00000649","RA_OF_ASC_NODE":"319.0257","RCS_SIZE":"LARGE","PERIAPSIS":"538.297","MEAN_ELEMENT_THEORY":"SGP4","EPHEMERIS_TYPE":"0","NORAD_CAT_ID":"49431","OBJECT_NAME":"STARLINK-3153","MEAN_MOTION_DDOT":"0.0000000000000","INCLINATION":"53.2204","CLASSIFICATION_TYPE":"U","CENTER_NAME":"EARTH","REF_FRAME":"TEME","COUNTRY_CODE":"US","APOAPSIS":"541.266","TLE_LINE2":"2 49431  53.2204 319.0257 0002146  41.0123 319.1031 15.08828202 54014","ARG_OF_PERICENTER":"41.0123","TIME_SYSTEM":"UTC","LAUNCH_DATE":"2021-11-13","OBJECT_ID":"2021-104Z","MEAN_ANOMALY":"319.1031","EPOCH":"2022-11-02T18:29:12.077952","SEMIMAJOR_AXIS":"6917.916","OBJECT_TYPE":"PAYLOAD"}];
